From: horizons@ssd.jpl.nasa.gov (Horizons Ephemeris System)
Subject: [Horizons] SMALL BODY #C(500@399)_T(322P/SOHO) (1/1)
Date: January 29, 2021 at 10:58:33 AM PST

Automated mail xmit by PORT_LOGIN, PID= 21169 Fri Jan 29 10:58:33 2021
++++++++++++++++++++++++++++++++ (part 1 of 1)  +++++++++++++++++++++++++++++++
*******************************************************************************
Ephemeris / PORT_LOGIN Fri Jan 29 10:58:22 2021 Pasadena, USA    / Horizons
*******************************************************************************
Target body name: 322P/SOHO                       {source: JPL#10}
Center body name: Earth (399)                     {source: DE431}
Center-site name: BODY CENTER
*******************************************************************************
Start time      : A.D. 2034-Dec-10 12:54:24.0000 TDB
Stop  time      : A.D. 2035-Dec-10 12:54:24.0000 TDB
Step-size       : 10080 minutes
*******************************************************************************
Center geodetic : 0.00000000,0.00000000,0.0000000 {E-lon(deg),Lat(deg),Alt(km)}
Center cylindric: 0.00000000,0.00000000,0.0000000 {E-lon(deg),Dxy(km),Dz(km)}
Center radii    : 6378.1 x 6378.1 x 6356.8 km     {Equator, meridian, pole}    
Small perturbers: Yes                             {source: SB431-N16}
Output units    : AU-D
Output type     : GEOMETRIC cartesian states
Output format   : 6 (LT, range, and range-rate)
EOP file        : eop.210128.p210421
EOP coverage    : DATA-BASED 1962-JAN-20 TO 2021-JAN-28. PREDICTS-> 2021-APR-20
Reference frame : Ecliptic of J2000.0
*******************************************************************************
Initial IAU76/J2000 heliocentric ecliptic osculating elements (au, days, deg.):
 EPOCH=  2457179.5 ! 2015-Jun-06.0000000 (TDB)    RMSW= n.a.                  
  EC= .9786764762641812   QR= .0536555610873724   TP= 2457269.564054383       
  OM= 359.5244877541514   W= 49.04947677107452    IN= 12.58923564712983       
 Equivalent ICRF heliocentric equatorial cartesian coordinates (au, au/d):
  X=-8.726486151366895E-01  Y=-1.414462651404379E+00  Z=-1.030679658250957E+00
 VX= 8.498325497933097E-03 VY= 8.580362819424817E-03 VZ= 6.259440089839168E-03
Comet physical (GM= km^3/s^2; RAD= km):                                        
  GM= n.a.                RAD= n.a.                                           
  M1=  19.      M2=  n.a.     k1=  10.    k2= n.a.     PHCOF= n.a.            
*******************************************************************************
           JDTDB,            Calendar Date (TDB),                     LT,                     RG,                     RR,
**************************************************************************************************************************
$$SOE
2464307.037777778, A.D. 2034-Dec-10 12:54:24.0000,  2.409021541794176E-02,  4.171091499582848E+00, -1.275247180677161E-02,
2464314.037777778, A.D. 2034-Dec-17 12:54:24.0000,  2.354221220272706E-02,  4.076207684180194E+00, -1.434641009076850E-02,
2464321.037777778, A.D. 2034-Dec-24 12:54:24.0000,  2.293120681711643E-02,  3.970415381126660E+00, -1.586717470814732E-02,
2464328.037777778, A.D. 2034-Dec-31 12:54:24.0000,  2.226011905840232E-02,  3.854220137651926E+00, -1.732171576508873E-02,
2464335.037777778, A.D. 2035-Jan-07 12:54:24.0000,  2.153153617028881E-02,  3.728069921116776E+00, -1.870773712836915E-02,
2464342.037777778, A.D. 2035-Jan-14 12:54:24.0000,  2.074872950405976E-02,  3.592531148437599E+00, -1.999980400233839E-02,
2464349.037777778, A.D. 2035-Jan-21 12:54:24.0000,  1.991595218994439E-02,  3.448340226285654E+00, -2.117852770952236E-02,
2464356.037777778, A.D. 2035-Jan-28 12:54:24.0000,  1.903767553723858E-02,  3.296271337866545E+00, -2.225397443593159E-02,
2464363.037777778, A.D. 2035-Feb-04 12:54:24.0000,  1.811793095586434E-02,  3.137022500170380E+00, -2.322682737386483E-02,
2464370.037777778, A.D. 2035-Feb-11 12:54:24.0000,  1.716129987327921E-02,  2.971386962771417E+00, -2.407485844818844E-02,
2464377.037777778, A.D. 2035-Feb-18 12:54:24.0000,  1.617321834270420E-02,  2.800305949107806E+00, -2.478235307321471E-02,
2464384.037777778, A.D. 2035-Feb-25 12:54:24.0000,  1.515915978349870E-02,  2.624727152364000E+00, -2.536354316536662E-02,
2464391.037777778, A.D. 2035-Mar-04 12:54:24.0000,  1.412403738010273E-02,  2.445501264055128E+00, -2.582193265403064E-02,
2464398.037777778, A.D. 2035-Mar-11 12:54:24.0000,  1.307317902192942E-02,  2.263550779636553E+00, -2.613851132279159E-02,
2464405.037777778, A.D. 2035-Mar-18 12:54:24.0000,  1.201265713440810E-02,  2.079927106978683E+00, -2.630042930353712E-02,
2464412.037777778, A.D. 2035-Mar-25 12:54:24.0000,  1.094843440591546E-02,  1.895662653570247E+00, -2.632517006298998E-02,
2464419.037777778, A.D. 2035-Apr-01 12:54:24.0000,  9.885870772532222E-03,  1.711685463575100E+00, -2.621600779320169E-02,
2464426.037777778, A.D. 2035-Apr-08 12:54:24.0000,  8.830747503084418E-03,  1.528996532660517E+00, -2.595322128482249E-02,
2464433.037777778, A.D. 2035-Apr-15 12:54:24.0000,  7.789677648069907E-03,  1.348740875025805E+00, -2.552065007399597E-02,
2464440.037777778, A.D. 2035-Apr-22 12:54:24.0000,  6.769355799411884E-03,  1.172077623330410E+00, -2.492777188243024E-02,
2464447.037777778, A.D. 2035-Apr-29 12:54:24.0000,  5.776501798011215E-03,  1.000170281958741E+00, -2.415423712440086E-02,
2464454.037777778, A.D. 2035-May-06 12:54:24.0000,  4.819623202704144E-03,  8.344918890604549E-01, -2.313296984111525E-02,
2464461.037777778, A.D. 2035-May-13 12:54:24.0000,  3.910962918359093E-03,  6.771622379018603E-01, -2.174343700063998E-02,
2464468.037777778, A.D. 2035-May-20 12:54:24.0000,  3.069624790285104E-03,  5.314890567616564E-01, -1.973716819368649E-02,
2464475.037777778, A.D. 2035-May-27 12:54:24.0000,  2.332324130506554E-03,  4.038294048538242E-01, -1.641831275462509E-02,
2464482.037777778, A.D. 2035-Jun-03 12:54:24.0000,  1.781004845667171E-03,  3.083714297940846E-01, -1.019179123522130E-02,
2464489.037777778, A.D. 2035-Jun-10 12:54:24.0000,  1.565359960816669E-03,  2.710336754185655E-01, -1.730153787322427E-09,
2464496.037777778, A.D. 2035-Jun-17 12:54:24.0000,  1.770473428632193E-03,  3.065479714600240E-01,  9.487223466305345E-03,
2464503.037777778, A.D. 2035-Jun-24 12:54:24.0000,  2.274632119516543E-03,  3.938403428027206E-01,  1.492051754563441E-02,
2464510.037777778, A.D. 2035-Jul-01 12:54:24.0000,  2.957101933354721E-03,  5.120063280309891E-01,  1.889246565330732E-02,
2464517.037777778, A.D. 2035-Jul-08 12:54:24.0000,  3.839525777512801E-03,  6.647932803907313E-01,  2.591359811153418E-02,
2464524.037777778, A.D. 2035-Jul-15 12:54:24.0000,  5.437662703068644E-03,  9.415021113292371E-01,  7.664000285117789E-02,
2464531.037777778, A.D. 2035-Jul-22 12:54:24.0000,  6.854826965208199E-03,  1.186876496936452E+00,  1.556333446287728E-02,
2464538.037777778, A.D. 2035-Jul-29 12:54:24.0000,  7.572445754183938E-03,  1.311128338553789E+00,  1.981036202501158E-02,
2464545.037777778, A.D. 2035-Aug-05 12:54:24.0000,  8.431418003456662E-03,  1.459854773131481E+00,  2.238331737845952E-02,
2464552.037777778, A.D. 2035-Aug-12 12:54:24.0000,  9.362951614577888E-03,  1.621144818052774E+00,  2.351492857680094E-02,
2464559.037777778, A.D. 2035-Aug-19 12:54:24.0000,  1.032112820774021E-02,  1.787047952312920E+00,  2.377432039990043E-02,
2464566.037777778, A.D. 2035-Aug-26 12:54:24.0000,  1.127804293662544E-02,  1.952732601546322E+00,  2.349141094986191E-02,
2464573.037777778, A.D. 2035-Sep-02 12:54:24.0000,  1.221561138026101E-02,  2.115067545326563E+00,  2.283844624608323E-02,
2464580.037777778, A.D. 2035-Sep-09 12:54:24.0000,  1.312128862206560E-02,  2.271880698680238E+00,  2.193127074566098E-02,
2464587.037777778, A.D. 2035-Sep-16 12:54:24.0000,  1.398659432417413E-02,  2.421703736622745E+00,  2.085070705672682E-02,
2464594.037777778, A.D. 2035-Sep-23 12:54:24.0000,  1.480541238549053E-02,  2.563477689076406E+00,  1.963460325666197E-02,
2464601.037777778, A.D. 2035-Sep-30 12:54:24.0000,  1.557246244837760E-02,  2.696288290457741E+00,  1.829103222777728E-02,
2464608.037777778, A.D. 2035-Oct-07 12:54:24.0000,  1.628299425320253E-02,  2.819313058807519E+00,  1.684516395439718E-02,
2464615.037777778, A.D. 2035-Oct-14 12:54:24.0000,  1.693358396644135E-02,  2.931959175727893E+00,  1.532951038237387E-02,
2464622.037777778, A.D. 2035-Oct-21 12:54:24.0000,  1.752173479415553E-02,  3.033794334749515E+00,  1.375606478438617E-02,
2464629.037777778, A.D. 2035-Oct-28 12:54:24.0000,  1.804495098167866E-02,  3.124386409347424E+00,  1.211661996141544E-02,
2464636.037777778, A.D. 2035-Nov-04 12:54:24.0000,  1.850079282586879E-02,  3.203312978017272E+00,  1.042856898927309E-02,
2464643.037777778, A.D. 2035-Nov-11 12:54:24.0000,  1.888792270959640E-02,  3.270342439532511E+00,  8.721169319214638E-03,
2464650.037777778, A.D. 2035-Nov-18 12:54:24.0000,  1.920588860913984E-02,  3.325396528411895E+00,  7.006909315789719E-03,
2464657.037777778, A.D. 2035-Nov-25 12:54:24.0000,  1.945425579235766E-02,  3.368399973118479E+00,  5.277787636730280E-03,
2464664.037777778, A.D. 2035-Dec-02 12:54:24.0000,  1.963270955370017E-02,  3.399298284075464E+00,  3.554251003637688E-03,
2464671.037777778, A.D. 2035-Dec-09 12:54:24.0000,  1.974215809941358E-02,  3.418248712319742E+00,  1.868459508133904E-03,
$$EOE
**************************************************************************************************************************
Coordinate system description:

 Ecliptic at the standard reference epoch

   Reference epoch: J2000.0
   X-Y plane: adopted Earth orbital plane at the reference epoch
              Note: obliquity of 84381.448 arcseconds (IAU76) wrt ICRF equator
   X-axis   : ICRF
   Z-axis   : perpendicular to the X-Y plane in the directional (+ or -) sense
              of Earth's north pole at the reference epoch.

 Symbol meaning [1 au= 149597870.700 km, 1 day= 86400.0 s]:

   JDTDB    Julian Day Number, Barycentric Dynamical Time
     LT     One-way down-leg Newtonian light-time (day)
     RG     Range; distance from coordinate center (au)
     RR     Range-rate; radial velocity wrt coord. center (au/day)

Geometric states/elements have no aberrations applied.


Computations by ...
    Solar System Dynamics Group, Horizons On-Line Ephemeris System
    4800 Oak Grove Drive, Jet Propulsion Laboratory
    Pasadena, CA  91109   USA
    Information  : https://ssd.jpl.nasa.gov/
    Documentation: https://ssd.jpl.nasa.gov/?horizons_doc
    Connect      : https://ssd.jpl.nasa.gov/?horizons (browser)
                   telnet ssd.jpl.nasa.gov 6775       (command-line)
                   e-mail command interface available
                   Script and CGI interfaces available
    Author       : Jon.D.Giorgini@jpl.nasa.gov
*******************************************************************************
